{
    "links": {
        "self": "http://www.neowsapp.com/rest/v1/neo/3617716?api_key=iIulBulltgU6a56xZRHN4H3l9WmuAYTsLGpBGhQ2"
    },
    "id": "3617716",
    "neo_reference_id": "3617716",
    "name": "(2012 VV76)",
    "designation": "2012 VV76",
    "nasa_jpl_url": "http://ssd.jpl.nasa.gov/sbdb.cgi?sstr=3617716",
    "absolute_magnitude_h": 25.6,
    "estimated_diameter": {
        "kilometers": {
            "estimated_diameter_min": 0.0201629919,
            "estimated_diameter_max": 0.0450858206
        },
        "meters": {
            "estimated_diameter_min": 20.1629919443,
            "estimated_diameter_max": 45.0858206172
        },
        "miles": {
            "estimated_diameter_min": 0.0125286985,
            "estimated_diameter_max": 0.0280150214
        },
        "feet": {
            "estimated_diameter_min": 66.1515504905,
            "estimated_diameter_max": 147.9193637137
        }
    },
    "is_potentially_hazardous_asteroid": false,
    "close_approach_data": [
        {
            "close_approach_date": "1963-07-07",
            "close_approach_date_full": "1963-Jul-07 19:41",
            "epoch_date_close_approach": -204697140000,
            "relative_velocity": {
                "kilometers_per_second": "22.9667906454",
                "kilometers_per_hour": "82680.4463235124",
                "miles_per_hour": "51374.4139947402"
            },
            "miss_distance": {
                "astronomical": "0.2467780623",
                "lunar": "95.9966662347",
                "kilometers": "36917472.482807301",
                "miles": "22939453.6842147138"
            },
            "orbiting_body": "Earth"
        },
        {
            "close_approach_date": "2012-11-11",
            "close_approach_date_full": "2012-Nov-11 14:11",
            "epoch_date_close_approach": 1352643060000,
            "relative_velocity": {
                "kilometers_per_second": "14.6693678456",
                "kilometers_per_hour": "52809.7242442057",
                "miles_per_hour": "32813.908933851"
            },
            "miss_distance": {
                "astronomical": "0.0092225266",
                "lunar": "3.5875628474",
                "kilometers": "1379670.335378342",
                "miles": "857287.3934594396"
            },
            "orbiting_body": "Moon"
        },
        {
            "close_approach_date": "2012-11-11",
            "close_approach_date_full": "2012-Nov-11 19:06",
            "epoch_date_close_approach": 1352660760000,
            "relative_velocity": {
                "kilometers_per_second": "13.7639338039",
                "kilometers_per_hour": "49550.1616938942",
                "miles_per_hour": "30788.5435258533"
            },
            "miss_distance": {
                "astronomical": "0.0113057063",
                "lunar": "4.3979197507",
                "kilometers": "1691309.581325581",
                "miles": "1050931.0415157778"
            },
            "orbiting_body": "Earth"
        }
    ],
    "orbital_data": {
        "orbit_id": "14",
        "orbit_determination_date": "2017-04-06 08:48:00",
        "first_observation_date": "2012-11-13",
        "last_observation_date": "2012-11-26",
        "data_arc_in_days": 13,
        "observations_used": 46,
        "orbit_uncertainty": "8",
        "minimum_orbit_intersection": ".000817329",
        "jupiter_tisserand_invariant": "3.083",
        "epoch_osculation": "2456249.5",
        "eccentricity": ".66491368234364",
        "semi_major_axis": "2.555361539187298",
        "inclination": "1.055576039458628",
        "ascending_node_longitude": "53.64553856851459",
        "orbital_period": "1492.027946422266",
        "perihelion_distance": ".8562666884469601",
        "perihelion_argument": "308.8548047321287",
        "aphelion_distance": "4.254456389927637",
        "perihelion_time": "2456210.560660884452",
        "mean_anomaly": "9.395375009705035",
        "mean_motion": ".2412823438483468",
        "equinox": "J2000",
        "orbit_class": {
            "orbit_class_type": "APO",
            "orbit_class_description": "Near-Earth asteroid orbits which cross the Earth’s orbit similar to that of 1862 Apollo",
            "orbit_class_range": "a (semi-major axis) > 1.0 AU; q (perihelion) < 1.017 AU"
        }
    },
    "is_sentry_object": false
}